TIANMU-1 21             
1 58662U 23208C   26161.53329749  .00008914  00000+0  26511-3 0  9999
2 58662  97.4492 281.0805 0006467 351.4326   8.6805 15.34959101136549
TIANMU-1 22             
1 58663U 23208D   26161.53690152  .00007121  00000+0  24058-3 0  9992
2 58663  97.4488 277.7453 0003854  27.4599 332.6845 15.30964990136312
TIANMU-1 15             
1 58700U 24004A   26161.54560272  .00005211  00000+0  19961-3 0  9994
2 58700  97.4672 347.7355 0007372  25.0639 335.0956 15.26955384134765
TIANMU-1 16             
1 58701U 24004B   26161.53364266  .00005305  00000+0  20487-3 0  9998
2 58701  97.4618 346.9679 0006489  30.0447 330.1163 15.26680555134768
TIANMU-1 17             
1 58702U 24004C   26161.51909274  .00005248  00000+0  20271-3 0  9998
2 58702  97.4645 347.4359 0006153  35.8398 324.3252 15.26680073134754
TIANMU-1 18             
1 58703U 24004D   26161.49660685  .00004832  00000+0  18547-3 0  9997
2 58703  97.4664 347.6647 0004661  35.7493 324.4057 15.26938194134759
INSAT-3DS               
1 58990U 24033A   26161.42744744 -.00000139  00000+0  00000+0 0  9997
2 58990   0.0195  94.3815 0001150 340.0209  60.3578  1.00272540 47004
METEOR-M2 4             
1 59051U 24039A   26161.50093784 -.00000002  00000+0  18988-4 0  9990
2 59051  98.7008 120.8831 0006885 179.9972 180.1207 14.22428879118318
GOES 19                 
1 60133U 24119A   26161.28933737  .00000000  00000+0  00000+0 0  9996
2 60133   0.0087  74.4946 0000407 100.3335 112.7927  1.00269499  6892
MTG-S1                  
1 64723U 25143A   26161.33922109 -.00000015  00000+0  00000+0 0  9997
2 64723   0.6094 337.3675 0000988  22.8175  17.1593  1.00271596  3355
METOP-SGA1              
1 65159U 25172A   26161.17038815  .00000029  00000+0  33248-4 0  9996
2 65159  98.6645 221.0260 0000940  89.0756 271.0529 14.21508654 42791
FENGYUN 3H              
1 65815U 25219A   26161.27629699  .00000041  00000+0  39952-4 0  9996
2 65815  98.6767 102.1798 0001626  82.0887 278.0474 14.19919335 36406
