OBJECT_NAME,OBJECT_ID,EPOCH,MEAN_MOTION,ECCENTRICITY,INCLINATION,RA_OF_ASC_NODE,ARG_OF_PERICENTER,MEAN_ANOMALY,EPHEMERIS_TYPE,CLASSIFICATION_TYPE,NORAD_CAT_ID,ELEMENT_SET_NO,REV_AT_EPOCH,BSTAR,MEAN_MOTION_DOT,MEAN_MOTION_DDOT
TIANMU-1 21,2023-208C,2026-06-10T12:47:56.903136,15.34959101,.0006467,97.4492,281.0805,351.4326,8.6805,0,U,58662,999,13654,.26511E-3,.8914E-4,0
TIANMU-1 22,2023-208D,2026-06-10T12:53:08.291328,15.30964990,.0003854,97.4488,277.7453,27.4599,332.6845,0,U,58663,999,13631,.24058E-3,.7121E-4,0
TIANMU-1 15,2024-004A,2026-06-10T13:05:40.075008,15.26955384,.0007372,97.4672,347.7355,25.0639,335.0956,0,U,58700,999,13476,.19961E-3,.5211E-4,0
TIANMU-1 16,2024-004B,2026-06-10T12:48:26.725824,15.26680555,.0006489,97.4618,346.9679,30.0447,330.1163,0,U,58701,999,13476,.20487E-3,.5305E-4,0
TIANMU-1 17,2024-004C,2026-06-10T12:27:29.612736,15.26680073,.0006153,97.4645,347.4359,35.8398,324.3252,0,U,58702,999,13475,.20271E-3,.5248E-4,0
TIANMU-1 18,2024-004D,2026-06-10T11:55:06.831840,15.26938194,.0004661,97.4664,347.6647,35.7493,324.4057,0,U,58703,999,13475,.18547E-3,.4832E-4,0
INSAT-3DS,2024-033A,2026-06-10T10:15:31.458816,1.00272540,.000115,0.0195,94.3815,340.0209,60.3578,0,U,58990,999,4700,0,-.139E-5,0
METEOR-M2 4,2024-039A,2026-06-10T12:01:21.029376,14.22428879,.0006885,98.7008,120.8831,179.9972,180.1207,0,U,59051,999,11831,.18988E-4,-.2E-7,0
GOES 19,2024-119A,2026-06-10T06:56:38.748768,1.00269499,.0000407,0.0087,74.4946,100.3335,112.7927,0,U,60133,999,689,0,0,0
MTG-S1,2025-143A,2026-06-10T08:08:28.702176,1.00271596,.0000988,0.6094,337.3675,22.8175,17.1593,0,U,64723,999,335,0,-.15E-6,0
METOP-SGA1,2025-172A,2026-06-10T04:05:21.536160,14.21508654,.00009403,98.6645,221.0260,89.0756,271.0529,0,U,65159,999,4279,.33247978E-4,.29E-6,0
FENGYUN 3H,2025-219A,2026-06-10T06:37:52.059936,14.19919335,.0001626,98.6767,102.1798,82.0887,278.0474,0,U,65815,999,3640,.39952E-4,.41E-6,0
